IRIDIUM 159             
1 43578U 18061K   24180.03234112  .00000161  00000+0  50317-4 0  9991
2 43578  86.3975 357.2473 0001956  84.6914 275.4505 14.34218262310309
IRIDIUM 180             
1 43922U 19002A   24180.58998729  .00000047  00000+0  96607-5 0  9997
2 43922  86.3964 293.8934 0002090  95.0315 265.1119 14.34217945286034
IRIDIUM 176             
1 43923U 19002B   24180.40049206  .00001455  00000+0  22681-3 0  9999
2 43923  86.6095 293.9932 0002169  88.5921 271.5544 14.72253213293490
IRIDIUM 168             
1 43924U 19002C   24180.58364464  .00000070  00000+0  17882-4 0  9995
2 43924  86.3969 293.9532 0002280  93.0054 267.1403 14.34218240285974
IRIDIUM 173             
1 43925U 19002D   24179.87327458  .00000030  00000+0  38199-5 0  9999
2 43925  86.3965 294.1683 0002107  91.7054 268.4383 14.34217809285852
IRIDIUM 169             
1 43926U 19002E   24179.90662577  .00000592  00000+0  18711-3 0  9997
2 43926  86.4232 325.7819 0002538 144.6998 215.4369 14.38615207286817
IRIDIUM 172             
1 43927U 19002F   24179.79716373  .00000053  00000+0  12011-4 0  9999
2 43927  86.3966 294.2056 0002180  91.3784 268.7661 14.34217970285858
IRIDIUM 175             
1 43928U 19002G   24180.19091589  .00001607  00000+0  25087-3 0  9993
2 43928  86.1509 266.5985 0002082 103.4464 256.6985 14.72245550293451
